COSMOS 2251 DEB         
1 35058U 93036AHM 17344.04261221  .00003752  00000-0  28640-3 0  9999
2 35058  74.0055 211.2012 0060901 324.2991  35.4129 15.00917297463962
